CCSDS_OMM_VERS = 2.0
CREATION_DATE  = 
ORIGINATOR     = 

OBJECT_NAME    = STARLINK-35687
OBJECT_ID      = 2025-265J
CENTER_NAME    = EARTH
REF_FRAME      = TEME
TIME_SYSTEM    = UTC
MEAN_ELEMENT_THEORY = SGP/SGP4

EPOCH          = 2025-12-04T14:00:01.000224
MEAN_MOTION    = 15.73452668
ECCENTRICITY   = .00013678
INCLINATION    = 42.9994
RA_OF_ASC_NODE = 102.2303
ARG_OF_PERICENTER = 278.4474
MEAN_ANOMALY   = 146.3443

EPHEMERIS_TYPE = 0
CLASSIFICATION_TYPE = U
NORAD_CAT_ID   = 66524
ELEMENT_SET_NO = 999
REV_AT_EPOCH   = 368
BSTAR          = -.14985316E-1
MEAN_MOTION_DOT = -.1871495E-1
MEAN_MOTION_DDOT = 0

CCSDS_OMM_VERS = 2.0
CREATION_DATE  = 
ORIGINATOR     = 

OBJECT_NAME    = STARLINK-35975
OBJECT_ID      = 2025-265K
CENTER_NAME    = EARTH
REF_FRAME      = TEME
TIME_SYSTEM    = UTC
MEAN_ELEMENT_THEORY = SGP/SGP4

EPOCH          = 2025-12-04T14:00:01.000224
MEAN_MOTION    = 15.73444095
ECCENTRICITY   = .00011113
INCLINATION    = 42.9993
RA_OF_ASC_NODE = 102.2258
ARG_OF_PERICENTER = 269.9200
MEAN_ANOMALY   = 156.7913

EPHEMERIS_TYPE = 0
CLASSIFICATION_TYPE = U
NORAD_CAT_ID   = 66525
ELEMENT_SET_NO = 999
REV_AT_EPOCH   = 368
BSTAR          = -.14892672E-1
MEAN_MOTION_DOT = -.1860637E-1
MEAN_MOTION_DDOT = 0

CCSDS_OMM_VERS = 2.0
CREATION_DATE  = 
ORIGINATOR     = 

OBJECT_NAME    = STARLINK-35932
OBJECT_ID      = 2025-265L
CENTER_NAME    = EARTH
REF_FRAME      = TEME
TIME_SYSTEM    = UTC
MEAN_ELEMENT_THEORY = SGP/SGP4

EPOCH          = 2025-12-04T14:00:01.000224
MEAN_MOTION    = 15.73450457
ECCENTRICITY   = .00014422
INCLINATION    = 42.9994
RA_OF_ASC_NODE = 102.2212
ARG_OF_PERICENTER = 277.7660
MEAN_ANOMALY   = 150.8599

EPHEMERIS_TYPE = 0
CLASSIFICATION_TYPE = U
NORAD_CAT_ID   = 66526
ELEMENT_SET_NO = 999
REV_AT_EPOCH   = 357
BSTAR          = -.14951694E-1
MEAN_MOTION_DOT = -.1867761E-1
MEAN_MOTION_DDOT = 0

CCSDS_OMM_VERS = 2.0
CREATION_DATE  = 
ORIGINATOR     = 

OBJECT_NAME    = STARLINK-35935
OBJECT_ID      = 2025-265M
CENTER_NAME    = EARTH
REF_FRAME      = TEME
TIME_SYSTEM    = UTC
MEAN_ELEMENT_THEORY = SGP/SGP4

EPOCH          = 2025-12-04T14:00:01.000224
MEAN_MOTION    = 15.73437028
ECCENTRICITY   = .0000964
INCLINATION    = 42.9992
RA_OF_ASC_NODE = 102.2167
ARG_OF_PERICENTER = 270.8273
MEAN_ANOMALY   = 159.7245

EPHEMERIS_TYPE = 0
CLASSIFICATION_TYPE = U
NORAD_CAT_ID   = 66527
ELEMENT_SET_NO = 999
REV_AT_EPOCH   = 368
BSTAR          = -.1484043E-1
MEAN_MOTION_DOT = -.1854355E-1
MEAN_MOTION_DDOT = 0

CCSDS_OMM_VERS = 2.0
CREATION_DATE  = 
ORIGINATOR     = 

OBJECT_NAME    = STARLINK-35928
OBJECT_ID      = 2025-265N
CENTER_NAME    = EARTH
REF_FRAME      = TEME
TIME_SYSTEM    = UTC
MEAN_ELEMENT_THEORY = SGP/SGP4

EPOCH          = 2025-12-04T14:00:01.000224
MEAN_MOTION    = 15.73444629
ECCENTRICITY   = .00011701
INCLINATION    = 42.9995
RA_OF_ASC_NODE = 102.2117
ARG_OF_PERICENTER = 276.1353
MEAN_ANOMALY   = 156.3286

EPHEMERIS_TYPE = 0
CLASSIFICATION_TYPE = U
NORAD_CAT_ID   = 66528
ELEMENT_SET_NO = 999
REV_AT_EPOCH   = 368
BSTAR          = -.14905655E-1
MEAN_MOTION_DOT = -.186213E-1
MEAN_MOTION_DDOT = 0

CCSDS_OMM_VERS = 2.0
CREATION_DATE  = 
ORIGINATOR     = 

OBJECT_NAME    = STARLINK-35933
OBJECT_ID      = 2025-265P
CENTER_NAME    = EARTH
REF_FRAME      = TEME
TIME_SYSTEM    = UTC
MEAN_ELEMENT_THEORY = SGP/SGP4

EPOCH          = 2025-12-04T14:00:01.000224
MEAN_MOTION    = 15.73441031
ECCENTRICITY   = .00011429
INCLINATION    = 42.9996
RA_OF_ASC_NODE = 102.2066
ARG_OF_PERICENTER = 270.4972
MEAN_ANOMALY   = 163.8859

EPHEMERIS_TYPE = 0
CLASSIFICATION_TYPE = U
NORAD_CAT_ID   = 66529
ELEMENT_SET_NO = 999
REV_AT_EPOCH   = 368
BSTAR          = -.1487601E-1
MEAN_MOTION_DOT = -.1858641E-1
MEAN_MOTION_DDOT = 0

CCSDS_OMM_VERS = 2.0
CREATION_DATE  = 
ORIGINATOR     = 

OBJECT_NAME    = STARLINK-35961
OBJECT_ID      = 2025-265Q
CENTER_NAME    = EARTH
REF_FRAME      = TEME
TIME_SYSTEM    = UTC
MEAN_ELEMENT_THEORY = SGP/SGP4

EPOCH          = 2025-12-04T14:00:01.000224
MEAN_MOTION    = 15.73427407
ECCENTRICITY   = .00013278
INCLINATION    = 42.9995
RA_OF_ASC_NODE = 102.2021
ARG_OF_PERICENTER = 290.1780
MEAN_ANOMALY   = 146.1327

EPHEMERIS_TYPE = 0
CLASSIFICATION_TYPE = U
NORAD_CAT_ID   = 66530
ELEMENT_SET_NO = 999
REV_AT_EPOCH   = 368
BSTAR          = -.14767787E-1
MEAN_MOTION_DOT = -.1846091E-1
MEAN_MOTION_DDOT = 0

CCSDS_OMM_VERS = 2.0
CREATION_DATE  = 
ORIGINATOR     = 

OBJECT_NAME    = STARLINK-35960
OBJECT_ID      = 2025-265R
CENTER_NAME    = EARTH
REF_FRAME      = TEME
TIME_SYSTEM    = UTC
MEAN_ELEMENT_THEORY = SGP/SGP4

EPOCH          = 2025-12-04T14:00:01.000224
MEAN_MOTION    = 15.73442008
ECCENTRICITY   = .0001484
INCLINATION    = 42.9996
RA_OF_ASC_NODE = 102.1968
ARG_OF_PERICENTER = 283.2168
MEAN_ANOMALY   = 155.0013

EPHEMERIS_TYPE = 0
CLASSIFICATION_TYPE = U
NORAD_CAT_ID   = 66531
ELEMENT_SET_NO = 999
REV_AT_EPOCH   = 368
BSTAR          = -.14912348E-1
MEAN_MOTION_DOT = -.1862937E-1
MEAN_MOTION_DDOT = 0

CCSDS_OMM_VERS = 2.0
CREATION_DATE  = 
ORIGINATOR     = 

OBJECT_NAME    = STARLINK-35914
OBJECT_ID      = 2025-265S
CENTER_NAME    = EARTH
REF_FRAME      = TEME
TIME_SYSTEM    = UTC
MEAN_ELEMENT_THEORY = SGP/SGP4

EPOCH          = 2025-12-04T14:00:01.000224
MEAN_MOTION    = 15.73442215
ECCENTRICITY   = .00012654
INCLINATION    = 42.9992
RA_OF_ASC_NODE = 102.1920
ARG_OF_PERICENTER = 279.3613
MEAN_ANOMALY   = 160.7764

EPHEMERIS_TYPE = 0
CLASSIFICATION_TYPE = U
NORAD_CAT_ID   = 66532
ELEMENT_SET_NO = 999
REV_AT_EPOCH   = 368
BSTAR          = -.1491373E-1
MEAN_MOTION_DOT = -.1862916E-1
MEAN_MOTION_DDOT = 0

CCSDS_OMM_VERS = 2.0
CREATION_DATE  = 
ORIGINATOR     = 

OBJECT_NAME    = STARLINK-35707
OBJECT_ID      = 2025-265T
CENTER_NAME    = EARTH
REF_FRAME      = TEME
TIME_SYSTEM    = UTC
MEAN_ELEMENT_THEORY = SGP/SGP4

EPOCH          = 2025-12-04T14:00:01.000224
MEAN_MOTION    = 15.73434618
ECCENTRICITY   = .00012917
INCLINATION    = 42.9994
RA_OF_ASC_NODE = 102.1876
ARG_OF_PERICENTER = 289.5949
MEAN_ANOMALY   = 152.4612

EPHEMERIS_TYPE = 0
CLASSIFICATION_TYPE = U
NORAD_CAT_ID   = 66533
ELEMENT_SET_NO = 999
REV_AT_EPOCH   = 368
BSTAR          = -.14826276E-1
MEAN_MOTION_DOT = -.1852918E-1
MEAN_MOTION_DDOT = 0

CCSDS_OMM_VERS = 2.0
CREATION_DATE  = 
ORIGINATOR     = 

OBJECT_NAME    = STARLINK-35976
OBJECT_ID      = 2025-265U
CENTER_NAME    = EARTH
REF_FRAME      = TEME
TIME_SYSTEM    = UTC
MEAN_ELEMENT_THEORY = SGP/SGP4

EPOCH          = 2025-12-04T14:00:01.000224
MEAN_MOTION    = 15.73435376
ECCENTRICITY   = .0001537
INCLINATION    = 42.9997
RA_OF_ASC_NODE = 102.1830
ARG_OF_PERICENTER = 291.0421
MEAN_ANOMALY   = 152.9295

EPHEMERIS_TYPE = 0
CLASSIFICATION_TYPE = U
NORAD_CAT_ID   = 66534
ELEMENT_SET_NO = 999
REV_AT_EPOCH   = 368
BSTAR          = -.14824257E-1
MEAN_MOTION_DOT = -.1852959E-1
MEAN_MOTION_DDOT = 0

CCSDS_OMM_VERS = 2.0
CREATION_DATE  = 
ORIGINATOR     = 

OBJECT_NAME    = STARLINK-35514
OBJECT_ID      = 2025-265V
CENTER_NAME    = EARTH
REF_FRAME      = TEME
TIME_SYSTEM    = UTC
MEAN_ELEMENT_THEORY = SGP/SGP4

EPOCH          = 2025-12-04T14:00:01.000224
MEAN_MOTION    = 15.73432134
ECCENTRICITY   = .0001505
INCLINATION    = 42.9998
RA_OF_ASC_NODE = 102.1781
ARG_OF_PERICENTER = 291.8930
MEAN_ANOMALY   = 153.9972

EPHEMERIS_TYPE = 0
CLASSIFICATION_TYPE = U
NORAD_CAT_ID   = 66535
ELEMENT_SET_NO = 999
REV_AT_EPOCH   = 368
BSTAR          = -.14787734E-1
MEAN_MOTION_DOT = -.1848738E-1
MEAN_MOTION_DDOT = 0

