STARLINK-35687          
1 66524U 25265J   25338.58334491 -.01871495  00000+0 -14985-1 0  9995
2 66524  42.9994 102.2303 0001367 278.4474 146.3443 15.73452668  3685
STARLINK-35975          
1 66525U 25265K   25338.58334491 -.01860637  00000+0 -14893-1 0  9990
2 66525  42.9993 102.2258 0001111 269.9200 156.7913 15.73444095  3685
STARLINK-35932          
1 66526U 25265L   25338.58334491 -.01867761  00000+0 -14952-1 0  9992
2 66526  42.9994 102.2212 0001442 277.7660 150.8599 15.73450457  3573
STARLINK-35935          
1 66527U 25265M   25338.58334491 -.01854355  00000+0 -14840-1 0  9994
2 66527  42.9992 102.2167 0000964 270.8273 159.7245 15.73437028  3680
STARLINK-35928          
1 66528U 25265N   25338.58334491 -.01862130  00000+0 -14906-1 0  9998
2 66528  42.9995 102.2117 0001170 276.1353 156.3286 15.73444629  3680
STARLINK-35933          
1 66529U 25265P   25338.58334491 -.01858641  00000+0 -14876-1 0  9997
2 66529  42.9996 102.2066 0001142 270.4972 163.8859 15.73441031  3681
STARLINK-35961          
1 66530U 25265Q   25338.58334491 -.01846091  00000+0 -14768-1 0  9995
2 66530  42.9995 102.2021 0001327 290.1780 146.1327 15.73427407  3689
STARLINK-35960          
1 66531U 25265R   25338.58334491 -.01862937  00000+0 -14912-1 0  9994
2 66531  42.9996 102.1968 0001484 283.2168 155.0013 15.73442008  3682
STARLINK-35914          
1 66532U 25265S   25338.58334491 -.01862916  00000+0 -14914-1 0  9994
2 66532  42.9992 102.1920 0001265 279.3613 160.7764 15.73442215  3681
STARLINK-35707          
1 66533U 25265T   25338.58334491 -.01852918  00000+0 -14826-1 0  9998
2 66533  42.9994 102.1876 0001291 289.5949 152.4612 15.73434618  3686
STARLINK-35976          
1 66534U 25265U   25338.58334491 -.01852959  00000+0 -14824-1 0  9992
2 66534  42.9997 102.1830 0001537 291.0421 152.9295 15.73435376  3680
STARLINK-35514          
1 66535U 25265V   25338.58334491 -.01848738  00000+0 -14788-1 0  9992
2 66535  42.9998 102.1781 0001505 291.8930 153.9972 15.73432134  3687
